H1 CPF  1  DGF 2022 05 04 11  6241 larets     NONE      
H2   304206 5557    27944 2022 05 04 00 00 00 2022 05 11 00 00 00    30 1 1  0 0 0
H5  0.0650
H9
10 0 59704  32400.000000  0      -1136458.899       -436040.533       6938720.592
10 0 59704  32430.000000  0      -1086279.619       -214480.313       6957211.241
10 0 59704  32460.000000  0      -1034027.343          7073.740       6968581.644
10 0 59704  32490.000000  0       -979755.769        228387.578       6972820.655
10 0 59704  32520.000000  0       -923521.657        449227.668       6969924.402
10 0 59704  32550.000000  0       -865384.773        669361.243       6959896.289
10 0 59704  32580.000000  0       -805407.820        888556.547       6942746.995
10 0 59704  32610.000000  0       -743656.374       1106583.081       6918494.455
10 0 59704  32640.000000  0       -680198.809       1323211.847       6887163.846
10 0 59704  32670.000000  0       -615106.220       1538215.589       6848787.560
10 0 59704  32700.000000  0       -548452.344       1751369.039       6803405.170
10 0 59704  32730.000000  0       -480313.476       1962449.150       6751063.388
10 0 59704  32760.000000  0       -410768.382       2171235.332       6691816.016
10 0 59704  32790.000000  0       -339898.205       2377509.684       6625723.894
10 0 59704  32820.000000  0       -267786.375       2581057.221       6552854.839
10 0 59704  32850.000000  0       -194518.508       2781666.102       6473283.578
10 0 59704  32880.000000  0       -120182.311       2979127.855       6387091.676
10 0 59704  32910.000000  0        -44867.474       3173237.599       6294367.450
10 0 59704  32940.000000  0         31334.435       3363794.259       6195205.882
10 0 59704  32970.000000  0        108330.078       3550600.773       6089708.524
10 0 59704  33000.000000  0        186024.463       3733464.309       5977983.394
10 0 59704  33030.000000  0        264321.058       3912196.458       5860144.871
10 0 59704  33060.000000  0        343121.905       4086613.437       5736313.576
10 0 59704  33090.000000  0        422327.747       4256536.283       5606616.258
10 0 59704  33120.000000  0        501838.145       4421791.039       5471185.665
10 0 59704  33150.000000  0        581551.608       4582208.943       5330160.412
10 0 59704  33180.000000  0        661365.720       4737626.608       5183684.834
10 0 59704  33210.000000  0        741177.265       4887886.192       5031908.843
10 0 59704  33240.000000  0        820882.361       5032835.564       4874987.769
10 0 59704  33270.000000  0        900376.585       5172328.458       4713082.200
10 0 59704  33300.000000  0        979555.106       5306224.627       4546357.828
10 0 59704  33330.000000  0       1058312.820       5434389.989       4374985.274
10 0 59704  33360.000000  0       1136544.480       5556696.762       4199139.917
10 0 59704  33390.000000  0       1214144.831       5673023.597       4019001.726
10 0 59704  33420.000000  0       1291008.754       5783255.716       3834755.086
10 0 59704  33450.000000  0       1367031.412       5887285.041       3646588.606
10 0 59704  33480.000000  0       1442108.394       5985010.320       3454694.906
10 0 59704  33510.000000  0       1516135.851       6076337.215       3259270.406
10 0 59704  33540.000000  0       1589010.628       6161178.394       3060515.120
10 0 59704  33570.000000  0       1660630.393       6239453.607       2858632.447
10 0 59704  33600.000000  0       1730893.770       6311089.775       2653828.975
10 0 59704  33630.000000  0       1799700.486       6376021.065       2446314.260
10 0 59704  33660.000000  0       1866951.504       6434188.952       2236300.604
10 0 59704  33690.000000  0       1932549.158       6485542.278       2024002.828
10 0 59704  33720.000000  0       1996397.288       6530037.287       1809638.047
10 0 59704  33750.000000  0       2058401.365       6567637.667       1593425.441
10 0 59704  33780.000000  0       2118468.629       6598314.571       1375586.024
10 0 59704  33810.000000  0       2176508.206       6622046.639       1156342.416
10 0 59704  33840.000000  0       2232431.240       6638820.007        935918.606
10 0 59704  33870.000000  0       2286151.014       6648628.309        714539.720
10 0 59704  33900.000000  0       2337583.068       6651472.669        492431.787
10 0 59704  33930.000000  0       2386645.321       6647361.686        269821.499
10 0 59704  33960.000000  0       2433258.184       6636311.413         46935.978
10 0 59704  33990.000000  0       2477344.669       6618345.322       -175997.464
10 0 59704  34020.000000  0       2518830.508       6593494.265       -398751.564
10 0 59704  34050.000000  0       2557644.246       6561796.418       -621099.339
10 0 59704  34080.000000  0       2593717.357       6523297.233       -842814.326
10 0 59704  34110.000000  0       2626984.336       6478049.364      -1063670.815
10 0 59704  34140.000000  0       2657382.794       6426112.594      -1283444.084
10 0 59704  34170.000000  0       2684853.555       6367553.756      -1501910.630
10 0 59704  34200.000000  0       2709340.742       6302446.642      -1718848.398
10 0 59704  34230.000000  0       2730791.857       6230871.905      -1934037.013
10 0 59704  34260.000000  0       2749157.868       6152916.952      -2147258.004
10 0 59704  34290.000000  0       2764393.277       6068675.836      -2358295.031
10 0 59704  34320.000000  0       2776456.199       5978249.132      -2566934.101
10 0 59704  34350.000000  0       2785308.425       5881743.810      -2772963.790
10 0 59704  34380.000000  0       2790915.483       5779273.103      -2976175.459
10 0 59704  34410.000000  0       2793246.697       5670956.358      -3176363.460
10 0 59704  34440.000000  0       2792275.241       5556918.896      -3373325.344
10 0 59704  34470.000000  0       2787978.182       5437291.851      -3566862.061
10 0 59704  34500.000000  0       2780336.530       5312212.018      -3756778.158
10 0 59704  34530.000000  0       2769335.267       5181821.684      -3942881.970
10 0 59704  34560.000000  0       2754963.390       5046268.463      -4124985.807
10 0 59704  34590.000000  0       2737213.934       4905705.122      -4302906.143
10 0 59704  34620.000000  0       2716083.995       4760289.396      -4476463.788
10 0 59704  34650.000000  0       2691574.755       4610183.808      -4645484.067
10 0 59704  34680.000000  0       2663691.489       4455555.481      -4809796.981
10 0 59704  34710.000000  0       2632443.578       4296575.946      -4969237.371
10 0 59704  34740.000000  0       2597844.517       4133420.950      -5123645.075
10 0 59704  34770.000000  0       2559911.911       3966270.256      -5272865.083
10 0 59704  34800.000000  0       2518667.474       3795307.443      -5416747.679
10 0 59704  34830.000000  0       2474137.019       3620719.699      -5555148.589
10 0 59704  34860.000000  0       2426350.445       3442697.613      -5687929.109
10 0 59704  34890.000000  0       2375341.716       3261434.964      -5814956.238
10 0 59704  34920.000000  0       2321148.836       3077128.510      -5936102.797
10 0 59704  34950.000000  0       2263813.827       2889977.774      -6051247.551
10 0 59704  34980.000000  0       2203382.688       2700184.824      -6160275.312
10 0 59704  35010.000000  0       2139905.362       2507954.060      -6263077.048
10 0 59704  35040.000000  0       2073435.697       2313491.994      -6359549.979
10 0 59704  35070.000000  0       2004031.397       2117007.031      -6449597.669
10 0 59704  35100.000000  0       1931753.973       1918709.251      -6533130.112
10 0 59704  35130.000000  0       1856668.697       1718810.189      -6610063.817
10 0 59704  35160.000000  0       1778844.534       1517522.610      -6680321.879
10 0 59704  35190.000000  0       1698354.090       1315060.289      -6743834.052
10 0 59704  35220.000000  0       1615273.534       1111637.790      -6800536.811
10 0 59704  35250.000000  0       1529682.535        907470.242      -6850373.409
10 0 59704  35280.000000  0       1441664.184        702773.125      -6893293.927
10 0 59704  35310.000000  0       1351304.913        497762.039      -6929255.326
10 0 59704  35340.000000  0       1258694.412        292652.490      -6958221.480
10 0 59704  35370.000000  0       1163925.543         87659.662      -6980163.211
10 0 59704  35400.000000  0       1067094.245       -117001.799      -6995058.312
10 0 59704  35430.000000  0        968299.446       -321118.004      -7002891.567
10 0 59704  35460.000000  0        867642.957       -524476.035      -7003654.765
10 0 59704  35490.000000  0        765229.379       -726864.159      -6997346.706
10 0 59704  35520.000000  0        661165.994       -928072.046      -6983973.205
10 0 59704  35550.000000  0        555562.659      -1127890.972      -6963547.088
10 0 59704  35580.000000  0        448531.694      -1326114.034      -6936088.182
10 0 59704  35610.000000  0        340187.768      -1522536.355      -6901623.300
10 0 59704  35640.000000  0        230647.785      -1716955.284      -6860186.222
10 0 59704  35670.000000  0        120030.755      -1909170.606      -6811817.678
10 0 59704  35700.000000  0          8457.676      -2098984.748      -6756565.306
10 0 59704  35730.000000  0       -103948.603      -2286202.975      -6694483.623
10 0 59704  35760.000000  0       -217063.504      -2470633.594      -6625633.968
10 0 59704  35790.000000  0       -330760.863      -2652088.144      -6550084.455
10 0 59704  35820.000000  0       -444913.056      -2830381.590      -6467909.905
10 0 59704  35850.000000  0       -559391.144      -3005332.505      -6379191.789
10 0 59704  35880.000000  0       -674065.010      -3176763.258      -6284018.153
10 0 59704  35910.000000  0       -788803.500      -3344500.188      -6182483.546
10 0 59704  35940.000000  0       -903474.571      -3508373.786      -6074688.933
10 0 59704  35970.000000  0      -1017945.439      -3668218.868      -5960741.614
99
